OBJECT_NAME,OBJECT_ID,EPOCH,MEAN_MOTION,ECCENTRICITY,INCLINATION,RA_OF_ASC_NODE,ARG_OF_PERICENTER,MEAN_ANOMALY,EPHEMERIS_TYPE,CLASSIFICATION_TYPE,NORAD_CAT_ID,ELEMENT_SET_NO,REV_AT_EPOCH,BSTAR,MEAN_MOTION_DOT,MEAN_MOTION_DDOT
SL-8 R/B,1985-006B,2026-07-21T06:27:28.364256,14.37847589,.00192267,74.0457,15.3425,257.5809,275.8271,0,U,15483,999,17322,.72082783E-4,.191E-5,0
SL-12 R/B(2),1985-042D,2026-07-21T04:46:34.604832,14.22011874,.00373656,71.1072,165.6570,277.3775,93.3001,0,U,15772,999,13337,.30297023E-4,.2E-6,0
SL-14 R/B,1985-069B,2026-07-21T03:53:24.690048,14.86537693,.00202894,82.5254,259.4143,108.8824,251.4595,0,U,15945,999,19266,.26184189E-4,.258E-5,0
SL-16 R/B,1985-097B,2026-07-21T03:52:47.801568,14.16615785,.00058977,71.0006,219.5509,39.4701,23.2038,0,U,16182,999,10613,.12163023E-3,.195E-5,0
SL-14 R/B,1986-006B,2026-07-20T21:36:02.681856,14.86971077,.00759669,82.5285,134.3900,189.8068,170.1673,0,U,16496,999,16900,.29118229E-4,.302E-5,0
COSMOS 1743,1986-034A,2026-07-21T05:07:24.335904,15.70085431,.00055758,82.5270,292.4702,158.1017,202.0485,0,U,16719,999,20112,.38117964E-3,.46131E-3,0
SL-14 R/B,1986-046B,2026-07-21T07:11:41.493984,14.85693602,.00240371,82.4840,313.9435,143.4578,216.8285,0,U,16792,999,14624,.32384708E-4,.307E-5,0
SL-14 R/B,1986-055B,2026-07-21T02:15:39.103776,14.85742801,.00174253,82.5209,1.2494,249.0626,201.0162,0,U,16882,999,13917,.2778811E-4,.266E-5,0
AJISAI (EGS),1986-061A,2026-07-21T06:56:18.964896,12.44516677,.00110768,50.0104,42.5327,267.4673,266.0659,0,U,16908,999,48463,-.59427873E-4,-.106E-5,0
SL-14 R/B,1987-024B,2026-07-21T06:49:50.890656,14.86234798,.00183919,82.5304,327.2013,173.4893,186.6566,0,U,17567,999,10797,.35042865E-4,.333E-5,0
COSMOS 1833,1987-027A,2026-07-21T00:23:28.415904,14.13067702,.00246703,70.9214,45.7649,359.4204,0.6884,0,U,17589,999,2915,.2194588E-4,-.7E-7,0
SL-16 R/B,1987-027B,2026-07-21T04:00:34.969824,14.17175870,.00072395,71.0041,355.2208,275.6600,84.3698,0,U,17590,999,3425,.97501738E-4,.149E-5,0
SL-14 R/B,1987-038B,2026-07-21T00:16:41.151360,14.85464128,.00208636,82.5019,171.2119,84.4174,275.9421,0,U,17912,999,9902,.31498857E-4,.297E-5,0
COSMOS 1844,1987-041A,2026-07-21T02:53:19.882464,14.14581332,.00309233,70.9001,112.7328,186.7501,173.3208,0,U,17973,999,2245,-.8035723E-5,-.64E-6,0
SL-14 R/B,1987-055B,2026-07-21T07:14:22.017408,14.85729344,.00191169,82.4968,223.0677,293.4358,66.4848,0,U,18153,999,8977,.2415026E-4,.234E-5,0
COSMOS 1867,1987-060A,2026-07-21T07:05:03.631488,14.31518928,.00172958,65.0114,292.5372,281.9514,77.9631,0,U,18187,999,3906,.11274271E-4,-.7E-6,0
SL-14 R/B,1988-001B,2026-07-21T02:29:48.396768,14.85629126,.00186525,82.5115,69.8620,152.7610,207.4589,0,U,18749,999,6183,.26480166E-4,.254E-5,0
COSMOS 1933,1988-020A,2026-07-21T05:31:59.412000,15.18915574,.00059673,82.5139,118.7205,92.0854,268.1063,0,U,18958,999,7049,.11906577E-3,.2517E-4,0
SL-3 R/B,1988-032B,2026-07-21T04:34:47.941824,15.21060281,.00269543,97.5281,185.2064,125.8009,234.5738,0,U,19046,999,7239,.13556427E-3,.2968E-4,0
SL-16 R/B,1988-039B,2026-07-21T03:41:48.941088,14.19632063,.00202968,71.0146,146.3355,139.6898,220.5737,0,U,19120,999,97732,.45779342E-4,.49E-6,0
COSMOS 1953,1988-050A,2026-07-20T22:59:09.105792,15.30386796,.00109881,82.5071,23.9637,20.9996,339.1694,0,U,19210,999,5815,.17835114E-3,.5282E-4,0
SL-8 R/B,1988-053B,2026-07-21T03:21:54.754848,14.38979998,.00199533,74.0451,226.4696,10.2429,47.3873,0,U,19257,999,99579,.4785148E-4,.122E-5,0
COSMOS 1975,1988-093A,2026-07-20T20:18:49.328064,15.29710223,.00122931,82.5206,343.8325,64.8427,295.4087,0,U,19573,999,3975,.18801476E-3,.5455E-4,0
SL-14 R/B,1988-093B,2026-07-21T05:02:08.452320,14.85762411,.00195421,82.5309,276.7058,319.5938,69.0885,0,U,19574,999,2084,.24749576E-4,.24E-5,0
SL-16 R/B,1988-102B,2026-07-21T02:55:07.347648,14.16167767,.00139618,70.9971,230.7366,176.3235,183.7993,0,U,19650,999,94578,.12445757E-3,.199E-5,0
INTERCOSMOS 24,1989-080A,2026-07-21T05:53:45.145824,12.59693573,.11868952,82.6057,17.4748,342.8995,13.5104,0,U,20261,999,68361,.51096366E-4,.183E-5,0
SL-14 R/B,1989-080C,2026-07-21T01:59:36.494592,12.50579255,.1228934,82.5927,87.5282,239.8203,107.5623,0,U,20262,999,67682,.21504924E-4,.76E-6,0
DELTA 1 R/B,1989-089B,2026-07-21T05:20:31.539264,14.50750162,.00704932,97.0639,28.3345,61.3333,299.4929,0,U,20323,999,91509,.56283979E-4,.194E-5,0
ARIANE 40 R/B,1990-005H,2026-07-21T03:55:07.789440,14.39942590,.00106667,98.2939,258.7195,156.9146,203.2524,0,U,20443,999,91201,.54060572E-4,.128E-5,0
DELTA 2 R/B(1),1990-008B,2026-07-21T04:09:43.919136,15.74641877,.00560936,35.5999,7.3213,73.0883,287.5999,0,U,20453,999,94705,.61153406E-3,.103999E-2,0
