SL-8 R/B                
1 15483U 85006B   26202.26907829  .00000191  00000+0  72083-4 0  9999
2 15483  74.0457  15.3425 0019226 257.5809 275.8271 14.37847589173229
SL-12 R/B(2)            
1 15772U 85042D   26202.19901163  .00000020  00000+0  30297-4 0  9999
2 15772  71.1072 165.6570 0037365 277.3775  93.3001 14.22011874133377
SL-14 R/B               
1 15945U 85069B   26202.16209132  .00000258  00000+0  26184-4 0  9997
2 15945  82.5254 259.4143 0020289 108.8824 251.4595 14.86537693192669
SL-16 R/B               
1 16182U 85097B   26202.16166437  .00000195  00000+0  12163-3 0  9993
2 16182  71.0006 219.5509 0005897  39.4701  23.2038 14.16615785106131
SL-14 R/B               
1 16496U 86006B   26201.90003104  .00000302  00000+0  29118-4 0  9993
2 16496  82.5285 134.3900 0075966 189.8068 170.1673 14.86971077169002
COSMOS 1743             
1 16719U 86034A   26202.21347611  .00046131  00000+0  38118-3 0  9990
2 16719  82.5270 292.4702 0005575 158.1017 202.0485 15.70085431201122
SL-14 R/B               
1 16792U 86046B   26202.29978581  .00000307  00000+0  32385-4 0  9994
2 16792  82.4840 313.9435 0024037 143.4578 216.8285 14.85693602146242
SL-14 R/B               
1 16882U 86055B   26202.09420259  .00000266  00000+0  27788-4 0  9991
2 16882  82.5209   1.2494 0017425 249.0626 201.0162 14.85742801139174
AJISAI (EGS)            
1 16908U 86061A   26202.28910839 -.00000106  00000+0 -59428-4 0  9997
2 16908  50.0104  42.5327 0011076 267.4673 266.0659 12.44516677484631
SL-14 R/B               
1 17567U 87024B   26202.28461679  .00000333  00000+0  35043-4 0  9999
2 17567  82.5304 327.2013 0018391 173.4893 186.6566 14.86234798107979
COSMOS 1833             
1 17589U 87027A   26202.01630111 -.00000007  00000+0  21946-4 0  9992
2 17589  70.9214  45.7649 0024670 359.4204   0.6884 14.13067702 29150
SL-16 R/B               
1 17590U 87027B   26202.16707141  .00000149  00000+0  97502-4 0  9995
2 17590  71.0041 355.2208 0007239 275.6600  84.3698 14.17175870 34252
SL-14 R/B               
1 17912U 87038B   26202.01158740  .00000297  00000+0  31499-4 0  9991
2 17912  82.5019 171.2119 0020863  84.4174 275.9421 14.85464128 99029
COSMOS 1844             
1 17973U 87041A   26202.12036901 -.00000064  00000+0 -80357-5 0  9990
2 17973  70.9001 112.7328 0030923 186.7501 173.3208 14.14581332 22454
SL-14 R/B               
1 18153U 87055B   26202.30164372  .00000234  00000+0  24150-4 0  9995
2 18153  82.4968 223.0677 0019116 293.4358  66.4848 14.85729344 89770
COSMOS 1867             
1 18187U 87060A   26202.29518092 -.00000070  00000+0  11274-4 0  9990
2 18187  65.0114 292.5372 0017295 281.9514  77.9631 14.31518928 39061
SL-14 R/B               
1 18749U 88001B   26202.10403237  .00000254  00000+0  26480-4 0  9992
2 18749  82.5115  69.8620 0018652 152.7610 207.4589 14.85629126 61835
COSMOS 1933             
1 18958U 88020A   26202.23054875  .00002517  00000+0  11907-3 0  9990
2 18958  82.5139 118.7205 0005967  92.0854 268.1063 15.18915574 70492
SL-3 R/B                
1 19046U 88032B   26202.19083266  .00002968  00000+0  13556-3 0  9995
2 19046  97.5281 185.2064 0026954 125.8009 234.5738 15.21060281 72390
SL-16 R/B               
1 19120U 88039B   26202.15403867  .00000049  00000+0  45779-4 0  9995
2 19120  71.0146 146.3355 0020296 139.6898 220.5737 14.19632063977323
COSMOS 1953             
1 19210U 88050A   26201.95774428  .00005282  00000+0  17835-3 0  9994
2 19210  82.5071  23.9637 0010988  20.9996 339.1694 15.30386796 58151
SL-8 R/B                
1 19257U 88053B   26202.14021707  .00000122  00000+0  47851-4 0  9995
2 19257  74.0451 226.4696 0019953  10.2429  47.3873 14.38979998995795
COSMOS 1975             
1 19573U 88093A   26201.84640426  .00005455  00000+0  18801-3 0  9997
2 19573  82.5206 343.8325 0012293  64.8427 295.4087 15.29710223 39757
SL-14 R/B               
1 19574U 88093B   26202.20982005  .00000240  00000+0  24750-4 0  9999
2 19574  82.5309 276.7058 0019542 319.5938  69.0885 14.85762411 20848
SL-16 R/B               
1 19650U 88102B   26202.12161282  .00000199  00000+0  12446-3 0  9993
2 19650  70.9971 230.7366 0013961 176.3235 183.7993 14.16167767945789
INTERCOSMOS 24          
1 20261U 89080A   26202.24566141  .00000183  00000+0  51096-4 0  9993
2 20261  82.6057  17.4748 1186895 342.8995  13.5104 12.59693573683618
SL-14 R/B               
1 20262U 89080C   26202.08306128  .00000076  00000+0  21505-4 0  9996
2 20262  82.5927  87.5282 1228934 239.8203 107.5623 12.50579255676829
DELTA 1 R/B             
1 20323U 89089B   26202.22258726  .00000194  00000+0  56284-4 0  9992
2 20323  97.0639  28.3345 0070493  61.3333 299.4929 14.50750162915092
ARIANE 40 R/B           
1 20443U 90005H   26202.16328460  .00000128  00000+0  54061-4 0  9999
2 20443  98.2939 258.7195 0010666 156.9146 203.2524 14.39942590912010
DELTA 2 R/B(1)          
1 20453U 90008B   26202.17342499  .00103999  00000+0  61153-3 0  9991
2 20453  35.5999   7.3213 0056093  73.0883 287.5999 15.74641877947058
